{
  "type":"FeatureCollection",
  "name":"limites-radar",
  "metadata":{
    "uso":"Referencias geográficas simplificadas para el visor de Seguimiento de MeteoArchidona",
    "fuente":"Límites administrativos existentes: OpenStreetMap, geometrías simplificadas de country-levels-export. Costa y fronteras internacionales: trazados simplificados de referencia visual.",
    "licencia":"© OpenStreetMap contributors (ODbL) para las geometrías administrativas procedentes de OpenStreetMap",
    "detalle":"Incluye Andalucía y sus ocho provincias, Murcia, Albacete, Ciudad Real y Badajoz. Añade costa peninsular, balear y norteafricana simplificada y las fronteras terrestres España–Portugal y España–Francia para servir como referencias visuales sobre fondos meteorológicos. La costa norteafricana permite definir visualmente el Estrecho de Gibraltar, el mar de Alborán y el entorno de Ceuta y Melilla. Huelva se deriva de los límites compartidos simplificados de Andalucía y Sevilla."
  },
  "features":[
    {
      "type":"Feature",
      "properties":{
        "nombre":"Huelva",
        "tipo":"provincia",
        "codigo":"ES-H",
        "grupo":"andalucia",
        "derivada":true
      },
      "geometry":{
        "type":"LineString",
        "coordinates":[
          [-6.331,36.899],
          [-6.396,36.806],
          [-6.398,36.811],
          [-6.531,36.982],
          [-6.568,37.006],
          [-7.094,37.206],
          [-7.103,37.207],
          [-7.273,37.2],
          [-7.282,37.199],
          [-7.393,37.166],
          [-7.512,37.526],
          [-7.371,37.786],
          [-7.37,37.786],
          [-7.368,37.788],
          [-7.368,37.789],
          [-7.367,37.79],
          [-7.367,37.791],
          [-7.361,37.793],
          [-7.361,37.794],
          [-7.32,37.824],
          [-7.319,37.825],
          [-7.246,37.992],
          [-7.007,38.021],
          [-6.931,38.208],
          [-6.587,38.027],
          [-6.18,37.941],
          [-6.475,37.725],
          [-6.312,37.446],
          [-6.382,37.091],
          [-6.331,36.899]
        ]
      }
    },
    {
      "type":"Feature",
      "properties":{
        "nombre":"Sevilla",
        "tipo":"provincia",
        "codigo":"ES-SE",
        "grupo":"andalucia"
      },
      "geometry":{
        "type":"LineString",
        "coordinates":[
          [-6.18,37.941],
          [-5.953,37.994],
          [-5.756,38.18],
          [-5.585,38.132],
          [-5.304,37.721],
          [-5,37.707],
          [-4.822,37.358],
          [-4.653,37.256],
          [-5.142,37.004],
          [-5.894,36.852],
          [-6.331,36.899],
          [-6.382,37.091],
          [-6.312,37.446],
          [-6.475,37.725],
          [-6.18,37.941]
        ]
      }
    },
    {
      "type":"Feature",
      "properties":{
        "nombre":"Cádiz",
        "tipo":"provincia",
        "codigo":"ES-CA",
        "grupo":"andalucia"
      },
      "geometry":{
        "type":"LineString",
        "coordinates":[
          [-6.355,36.789],
          [-6.354,36.789],
          [-6.345,36.799],
          [-6.331,36.899],
          [-5.894,36.852],
          [-5.142,37.004],
          [-5.43,36.533],
          [-5.252,36.311],
          [-5.337,36.17],
          [-5.337,36.169],
          [-5.339,36.153],
          [-5.352,36.155],
          [-5.382,36.174],
          [-5.383,36.174],
          [-5.384,36.174],
          [-5.381,36.175],
          [-5.383,36.179],
          [-5.384,36.18],
          [-5.428,36.147],
          [-5.43,36.144],
          [-5.43,36.133],
          [-5.429,36.133],
          [-5.427,36.12],
          [-5.433,36.12],
          [-5.449,36.06],
          [-5.448,36.059],
          [-5.815,36.096],
          [-5.817,36.099],
          [-5.826,36.105],
          [-5.829,36.109],
          [-5.838,36.122],
          [-5.842,36.126],
          [-5.879,36.161],
          [-5.93,36.183],
          [-5.929,36.183],
          [-5.928,36.184],
          [-5.927,36.184],
          [-5.927,36.186],
          [-5.929,36.186],
          [-5.933,36.186],
          [-5.932,36.185],
          [-5.933,36.185],
          [-5.934,36.186],
          [-5.935,36.186],
          [-5.935,36.184],
          [-5.934,36.183],
          [-5.933,36.184],
          [-5.933,36.182],
          [-5.928,36.18],
          [-5.926,36.18],
          [-5.925,36.18],
          [-6.034,36.181],
          [-6.169,36.348],
          [-6.17,36.349],
          [-6.175,36.358],
          [-6.175,36.359],
          [-6.208,36.386],
          [-6.209,36.386],
          [-6.234,36.433],
          [-6.262,36.476],
          [-6.308,36.534],
          [-6.306,36.535],
          [-6.302,36.537],
          [-6.299,36.538],
          [-6.298,36.537],
          [-6.295,36.537],
          [-6.294,36.537],
          [-6.293,36.537],
          [-6.291,36.537],
          [-6.29,36.538],
          [-6.261,36.508],
          [-6.26,36.508],
          [-6.262,36.508],
          [-6.262,36.507],
          [-6.261,36.506],
          [-6.263,36.507],
          [-6.263,36.503],
          [-6.261,36.501],
          [-6.257,36.508],
          [-6.256,36.508],
          [-6.263,36.483],
          [-6.261,36.479],
          [-6.21,36.48],
          [-6.208,36.48],
          [-6.207,36.48],
          [-6.207,36.481],
          [-6.205,36.481],
          [-6.203,36.483],
          [-6.199,36.485],
          [-6.197,36.485],
          [-6.193,36.487],
          [-6.194,36.5],
          [-6.192,36.499],
          [-6.191,36.525],
          [-6.242,36.507],
          [-6.241,36.508],
          [-6.248,36.512],
          [-6.248,36.514],
          [-6.247,36.514],
          [-6.25,36.514],
          [-6.25,36.515],
          [-6.249,36.515],
          [-6.251,36.516],
          [-6.249,36.516],
          [-6.247,36.517],
          [-6.354,36.622],
          [-6.355,36.62],
          [-6.355,36.617],
          [-6.354,36.617],
          [-6.354,36.614],
          [-6.355,36.615],
          [-6.355,36.789]
        ]
      }
    },
    {
      "type":"Feature",
      "properties":{
        "nombre":"Córdoba",
        "tipo":"provincia",
        "codigo":"ES-CO",
        "grupo":"andalucia"
      },
      "geometry":{
        "type":"LineString",
        "coordinates":[
          [-5.047,38.729],
          [-4.869,38.681],
          [-4.269,38.347],
          [-4.164,38.145],
          [-4.282,38.023],
          [-4.228,37.64],
          [-4.001,37.402],
          [-4.328,37.184],
          [-4.653,37.256],
          [-4.822,37.358],
          [-5,37.707],
          [-5.304,37.721],
          [-5.585,38.132],
          [-5.568,38.433],
          [-5.047,38.729]
        ]
      }
    },
    {
      "type":"Feature",
      "properties":{
        "nombre":"Málaga",
        "tipo":"provincia",
        "codigo":"ES-MA",
        "grupo":"andalucia"
      },
      "geometry":{
        "type":"LineString",
        "coordinates":[
          [-5.252,36.311],
          [-5.43,36.533],
          [-5.142,37.004],
          [-4.653,37.256],
          [-4.328,37.184],
          [-4.273,37.015],
          [-3.827,36.856],
          [-3.778,36.738],
          [-3.946,36.731],
          [-3.951,36.729],
          [-3.953,36.728],
          [-3.955,36.726],
          [-3.957,36.726],
          [-3.976,36.731],
          [-3.979,36.732],
          [-4.036,36.743],
          [-4.037,36.744],
          [-4.318,36.713],
          [-4.32,36.712],
          [-4.414,36.711],
          [-4.414,36.712],
          [-4.415,36.713],
          [-4.415,36.714],
          [-4.416,36.714],
          [-4.415,36.714],
          [-4.455,36.664],
          [-4.464,36.658],
          [-4.465,36.657],
          [-4.503,36.609],
          [-4.505,36.606],
          [-4.597,36.565],
          [-4.599,36.563],
          [-4.638,36.508],
          [-4.661,36.507],
          [-4.663,36.507],
          [-5.058,36.45],
          [-5.059,36.45],
          [-5.165,36.415],
          [-5.164,36.415],
          [-5.164,36.416],
          [-5.167,36.417],
          [-5.168,36.416],
          [-5.175,36.415],
          [-5.252,36.311]
        ]
      }
    },
    {
      "type":"Feature",
      "properties":{
        "nombre":"Granada",
        "tipo":"provincia",
        "codigo":"ES-GR",
        "grupo":"andalucia"
      },
      "geometry":{
        "type":"LineString",
        "coordinates":[
          [-3.778,36.738],
          [-3.827,36.856],
          [-4.273,37.015],
          [-4.328,37.184],
          [-4.001,37.402],
          [-3.507,37.617],
          [-3.399,37.564],
          [-2.902,37.666],
          [-2.774,37.926],
          [-2.551,38.084],
          [-2.342,38.026],
          [-2.208,37.917],
          [-2.381,37.523],
          [-2.851,37.276],
          [-3.129,36.751],
          [-3.578,36.724],
          [-3.579,36.724],
          [-3.764,36.729],
          [-3.778,36.738]
        ]
      }
    },
    {
      "type":"Feature",
      "properties":{
        "nombre":"Jaén",
        "tipo":"provincia",
        "codigo":"ES-J",
        "grupo":"andalucia"
      },
      "geometry":{
        "type":"LineString",
        "coordinates":[
          [-4.269,38.347],
          [-3.326,38.482],
          [-2.89,38.456],
          [-2.762,38.533],
          [-2.567,38.49],
          [-2.445,38.186],
          [-2.551,38.084],
          [-2.774,37.926],
          [-2.902,37.666],
          [-3.399,37.564],
          [-3.507,37.617],
          [-4.001,37.402],
          [-4.228,37.64],
          [-4.282,38.023],
          [-4.164,38.145],
          [-4.269,38.347]
        ]
      }
    },
    {
      "type":"Feature",
      "properties":{
        "nombre":"Almería",
        "tipo":"provincia",
        "codigo":"ES-AL",
        "grupo":"andalucia"
      },
      "geometry":{
        "type":"LineString",
        "coordinates":[
          [-3.129,36.751],
          [-2.851,37.276],
          [-2.381,37.523],
          [-2.208,37.917],
          [-1.845,37.455],
          [-1.63,37.375],
          [-1.789,37.235],
          [-1.796,37.231],
          [-1.798,37.23],
          [-1.8,37.226],
          [-1.807,37.212],
          [-1.845,37.106],
          [-1.846,37.104],
          [-2.006,36.861],
          [-2.005,36.859],
          [-2.062,36.807],
          [-2.098,36.764],
          [-2.191,36.721],
          [-2.191,36.722],
          [-2.274,36.806],
          [-2.274,36.807],
          [-2.467,36.833],
          [-2.469,36.832],
          [-2.468,36.827],
          [-2.572,36.807],
          [-2.573,36.806],
          [-2.838,36.701],
          [-2.839,36.7],
          [-3.129,36.751]
        ]
      }
    },
    {
      "type":"Feature",
      "properties":{
        "nombre":"Badajoz",
        "tipo":"provincia",
        "codigo":"ES-BA",
        "grupo":"entorno"
      },
      "geometry":{
        "type":"LineString",
        "coordinates":[
          [-7.204,38.751],
          [-6.951,39.024],
          [-7.231,39.278],
          [-6.802,39.389],
          [-6.801,39.239],
          [-6.309,39.156],
          [-5.61,39.099],
          [-4.953,39.395],
          [-4.941,39.395],
          [-4.755,39.416],
          [-4.688,39.45],
          [-5.047,38.729],
          [-5.568,38.433],
          [-5.585,38.132],
          [-5.756,38.18],
          [-5.953,37.994],
          [-6.18,37.941],
          [-6.587,38.027],
          [-6.931,38.208],
          [-7.108,38.188],
          [-7.318,38.44],
          [-7.204,38.751]
        ]
      }
    },
    {
      "type":"Feature",
      "properties":{
        "nombre":"Ciudad Real",
        "tipo":"provincia",
        "codigo":"ES-CR",
        "grupo":"entorno"
      },
      "geometry":{
        "type":"LineString",
        "coordinates":[
          [-5.047,38.729],
          [-4.688,39.45],
          [-4.521,39.556],
          [-3.841,39.26],
          [-3.556,39.299],
          [-3.294,39.471],
          [-2.931,39.471],
          [-2.742,39.318],
          [-2.881,38.951],
          [-2.637,38.743],
          [-2.762,38.533],
          [-2.89,38.456],
          [-3.326,38.482],
          [-4.269,38.347],
          [-4.869,38.681],
          [-5.047,38.729]
        ]
      }
    },
    {
      "type":"Feature",
      "properties":{
        "nombre":"Albacete",
        "tipo":"provincia",
        "codigo":"ES-AB",
        "grupo":"entorno"
      },
      "geometry":{
        "type":"LineString",
        "coordinates":[
          [-2.742,39.318],
          [-2.374,39.233],
          [-1.739,39.321],
          [-1.505,39.418],
          [-1.162,39.306],
          [-1.266,39.075],
          [-0.929,38.784],
          [-1.027,38.656],
          [-1.184,38.755],
          [-1.448,38.65],
          [-1.479,38.376],
          [-2.064,38.298],
          [-2.342,38.026],
          [-2.551,38.084],
          [-2.445,38.186],
          [-2.567,38.49],
          [-2.762,38.533],
          [-2.637,38.743],
          [-2.881,38.951],
          [-2.742,39.318]
        ]
      }
    },
    {
      "type":"Feature",
      "properties":{
        "nombre":"Murcia",
        "tipo":"provincia",
        "codigo":"ES-MU",
        "grupo":"entorno"
      },
      "geometry":{
        "type":"MultiLineString",
        "coordinates":[
          [
            [-0.724,37.651],
            [-0.723,37.651],
            [-0.722,37.65],
            [-0.722,37.648],
            [-0.723,37.651],
            [-0.724,37.651]
          ],
          [
            [-1.63,37.375],
            [-1.845,37.455],
            [-2.208,37.917],
            [-2.342,38.026],
            [-2.064,38.298],
            [-1.479,38.376],
            [-1.448,38.65],
            [-1.184,38.755],
            [-1.027,38.656],
            [-1.084,38.346],
            [-0.921,37.944],
            [-0.762,37.847],
            [-0.802,37.799],
            [-0.803,37.798],
            [-0.803,37.796],
            [-0.802,37.795],
            [-0.803,37.78],
            [-0.803,37.779],
            [-0.836,37.692],
            [-0.835,37.69],
            [-0.835,37.689],
            [-0.835,37.688],
            [-0.805,37.66],
            [-0.801,37.657],
            [-0.724,37.639],
            [-0.724,37.64],
            [-0.71,37.642],
            [-0.71,37.618],
            [-0.711,37.618],
            [-0.803,37.587],
            [-0.988,37.59],
            [-0.987,37.584],
            [-0.988,37.584],
            [-1.126,37.553],
            [-1.173,37.548],
            [-1.173,37.562],
            [-1.265,37.559],
            [-1.266,37.559],
            [-1.467,37.479],
            [-1.565,37.404],
            [-1.577,37.404],
            [-1.63,37.375]
          ]
        ]
      }
    },
    {
      "type":"Feature",
      "properties":{
        "nombre":"Andalucía",
        "tipo":"comunidad",
        "codigo":"ES-AN",
        "grupo":"andalucia"
      },
      "geometry":{
        "type":"LineString",
        "coordinates":[
          [-5.337,36.17],
          [-5.339,36.153],
          [-5.352,36.155],
          [-5.384,36.174],
          [-5.381,36.175],
          [-5.384,36.18],
          [-5.428,36.147],
          [-5.43,36.133],
          [-5.427,36.12],
          [-5.433,36.12],
          [-5.448,36.059],
          [-5.815,36.096],
          [-5.879,36.161],
          [-5.93,36.183],
          [-5.927,36.186],
          [-5.935,36.186],
          [-5.92807,36.180028],
          [-6.034,36.181],
          [-6.17,36.349],
          [-6.175,36.359],
          [-6.209,36.386],
          [-6.234,36.433],
          [-6.262,36.476],
          [-6.308,36.534],
          [-6.29,36.538],
          [-6.261,36.508],
          [-6.261,36.501],
          [-6.256,36.508],
          [-6.263,36.483],
          [-6.261,36.479],
          [-6.207,36.48],
          [-6.193,36.487],
          [-6.191,36.525],
          [-6.242,36.507],
          [-6.251,36.516],
          [-6.247,36.517],
          [-6.354,36.622],
          [-6.355,36.62],
          [-6.355,36.789],
          [-6.345,36.799],
          [-6.331,36.899],
          [-6.396,36.806],
          [-6.531,36.982],
          [-6.568,37.006],
          [-7.094,37.206],
          [-7.282,37.199],
          [-7.393,37.166],
          [-7.512,37.526],
          [-7.371,37.786],
          [-7.319,37.825],
          [-7.246,37.992],
          [-7.007,38.021],
          [-6.931,38.208],
          [-6.587,38.027],
          [-6.18,37.941],
          [-5.953,37.994],
          [-5.756,38.18],
          [-5.585,38.132],
          [-5.568,38.433],
          [-5.047,38.729],
          [-4.869,38.681],
          [-4.269,38.347],
          [-3.326,38.482],
          [-2.89,38.456],
          [-2.762,38.533],
          [-2.567,38.49],
          [-2.445,38.186],
          [-2.551,38.084],
          [-2.342,38.026],
          [-2.208,37.917],
          [-1.845,37.455],
          [-1.63,37.375],
          [-1.789,37.235],
          [-1.798,37.23],
          [-1.807,37.212],
          [-1.846,37.104],
          [-2.005,36.859],
          [-2.062,36.807],
          [-2.098,36.764],
          [-2.191,36.721],
          [-2.274,36.807],
          [-2.467,36.833],
          [-2.468,36.827],
          [-2.572,36.807],
          [-2.839,36.7],
          [-3.129,36.751],
          [-3.578,36.724],
          [-3.764,36.729],
          [-3.778,36.738],
          [-3.946,36.731],
          [-3.957,36.726],
          [-4.037,36.744],
          [-4.32,36.712],
          [-4.414,36.711],
          [-4.415,36.714],
          [-4.505,36.606],
          [-4.597,36.565],
          [-4.638,36.508],
          [-4.663,36.507],
          [-5.059,36.45],
          [-5.164,36.41533],
          [-5.175,36.415],
          [-5.252,36.311],
          [-5.337,36.17]
        ]
      }
    },
    {
      "type":"Feature",
      "properties":{
        "nombre":"Costa peninsular ibérica",
        "tipo":"costa",
        "codigo":"COSTA-IBERICA",
        "grupo":"referencia_meteorologica",
        "precision":"simplificada"
      },
      "geometry":{
        "type":"LineString",
        "coordinates":[
          [3.17,42.43],
          [3.21,42.32],
          [3.20,41.89],
          [2.75,41.65],
          [2.17,41.38],
          [1.25,41.12],
          [0.52,40.54],
          [0.20,40.15],
          [-0.18,39.72],
          [-0.35,39.47],
          [-0.24,39.13],
          [-0.50,38.35],
          [-0.86,37.72],
          [-1.13,37.99],
          [-1.45,37.49],
          [-1.81,37.22],
          [-2.13,36.73],
          [-2.46,36.83],
          [-3.13,36.75],
          [-3.78,36.73],
          [-4.42,36.72],
          [-5.18,36.42],
          [-5.61,36.00],
          [-6.03,36.18],
          [-6.29,36.53],
          [-6.52,36.98],
          [-6.94,37.26],
          [-7.42,37.18],
          [-8.03,37.03],
          [-8.52,37.15],
          [-8.99,37.02],
          [-8.89,37.96],
          [-8.79,38.32],
          [-8.91,38.49],
          [-8.73,38.57],
          [-9.23,38.41],
          [-9.28,38.67],
          [-9.05,38.60],
          [-9.12,38.71],
          [-9.43,38.69],
          [-9.50,38.78],
          [-9.34,39.23],
          [-9.41,39.37],
          [-9.18,39.41],
          [-8.79,40.12],
          [-8.91,40.19],
          [-8.63,41.14],
          [-8.79,41.42],
          [-8.90,42.11],
          [-8.60,42.35],
          [-8.87,42.25],
          [-8.64,42.44],
          [-8.95,42.46],
          [-8.74,42.66],
          [-8.84,42.69],
          [-9.04,42.52],
          [-8.87,42.83],
          [-9.09,42.74],
          [-9.12,42.91],
          [-9.28,42.89],
          [-9.18,43.19],
          [-8.84,43.34],
          [-8.21,43.32],
          [-8.18,43.42],
          [-8.32,43.45],
          [-8.16,43.50],
          [-8.34,43.46],
          [-8.33,43.56],
          [-7.69,43.79],
          [-7.60,43.66],
          [-7.47,43.73],
          [-7.05,43.48],
          [-6.95,43.57],
          [-6.08,43.54],
          [-5.85,43.66],
          [-5.69,43.54],
          [-4.48,43.38],
          [-3.81,43.50],
          [-3.59,43.51],
          [-3.43,43.46],
          [-3.01,43.32],
          [-2.75,43.46],
          [-2.13,43.28],
          [-1.79,43.38]
        ]
      }
    },
    {
      "type":"Feature",
      "properties":{
        "nombre":"Costa norteafricana",
        "tipo":"costa",
        "codigo":"COSTA-NORTE-AFRICA",
        "grupo":"referencia_meteorologica",
        "precision":"simplificada"
      },
      "geometry":{
        "type":"LineString",
        "coordinates":[
          [-6.45,35.10],
          [-6.25,35.20],
          [-6.10,35.33],
          [-6.03,35.47],
          [-5.94,35.63],
          [-5.83,35.78],
          [-5.66,35.84],
          [-5.49,35.86],
          [-5.32,35.89],
          [-5.24,35.82],
          [-5.28,35.67],
          [-5.31,35.57],
          [-5.20,35.48],
          [-5.05,35.40],
          [-4.82,35.36],
          [-4.60,35.30],
          [-4.35,35.22],
          [-4.05,35.20],
          [-3.94,35.25],
          [-3.72,35.22],
          [-3.45,35.20],
          [-3.18,35.20],
          [-2.94,35.29],
          [-2.82,35.24],
          [-2.68,35.18],
          [-2.48,35.12],
          [-2.28,35.10],
          [-2.10,35.08],
          [-1.90,35.10],
          [-1.72,35.18],
          [-1.50,35.28],
          [-1.30,35.38],
          [-1.10,35.48],
          [-0.88,35.60],
          [-0.64,35.70],
          [-0.40,35.78],
          [-0.15,35.88],
          [0.09,35.93],
          [0.36,36.02],
          [0.64,36.13],
          [0.92,36.23],
          [1.20,36.34],
          [1.48,36.43],
          [1.78,36.50],
          [2.08,36.55],
          [2.38,36.60],
          [2.66,36.66],
          [2.92,36.72],
          [3.06,36.75],
          [3.30,36.78],
          [3.55,36.80],
          [3.82,36.82],
          [4.10,36.84],
          [4.38,36.85],
          [4.66,36.87],
          [4.90,36.88]
        ]
      }
    },
    {
      "type":"Feature",
      "properties":{
        "nombre":"Mallorca",
        "tipo":"costa",
        "codigo":"COSTA-MALLORCA",
        "grupo":"referencia_meteorologica",
        "precision":"simplificada"
      },
      "geometry":{
        "type":"LineString",
        "coordinates":[
          [2.35,39.35],
          [2.52,39.45],
          [2.65,39.57],
          [2.86,39.79],
          [3.20,39.96],
          [3.48,39.72],
          [3.37,39.48],
          [3.14,39.30],
          [2.78,39.30],
          [2.48,39.34],
          [2.35,39.35]
        ]
      }
    },
    {
      "type":"Feature",
      "properties":{
        "nombre":"Ibiza",
        "tipo":"costa",
        "codigo":"COSTA-IBIZA",
        "grupo":"referencia_meteorologica",
        "precision":"simplificada"
      },
      "geometry":{
        "type":"LineString",
        "coordinates":[
          [1.20,38.90],
          [1.28,39.04],
          [1.43,39.11],
          [1.58,39.00],
          [1.51,38.86],
          [1.34,38.80],
          [1.20,38.90]
        ]
      }
    },
    {
      "type":"Feature",
      "properties":{
        "nombre":"Menorca",
        "tipo":"costa",
        "codigo":"COSTA-MENORCA",
        "grupo":"referencia_meteorologica",
        "precision":"simplificada"
      },
      "geometry":{
        "type":"LineString",
        "coordinates":[
          [3.82,39.92],
          [4.05,40.08],
          [4.30,40.05],
          [4.24,39.87],
          [4.02,39.80],
          [3.82,39.92]
        ]
      }
    },
    {
      "type":"Feature",
      "properties":{
        "nombre":"España–Portugal",
        "tipo":"frontera_internacional",
        "codigo":"ES-PT",
        "grupo":"referencia_meteorologica",
        "precision":"simplificada"
      },
      "geometry":{
        "type":"LineString",
        "coordinates":[
          [-8.75,41.96],
          [-8.21,42.15],
          [-8.11,42.08],
          [-8.24,41.92],
          [-8.14,41.83],
          [-7.92,41.94],
          [-7.71,41.92],
          [-7.52,41.89],
          [-7.41,41.83],
          [-7.17,41.92],
          [-6.78,42.00],
          [-6.55,41.95],
          [-6.54,41.69],
          [-6.18,41.59],
          [-6.32,41.40],
          [-6.65,41.25],
          [-6.81,41.04],
          [-6.93,41.04],
          [-6.80,40.87],
          [-6.84,40.46],
          [-6.78,40.37],
          [-7.02,40.22],
          [-6.87,40.02],
          [-7.01,39.69],
          [-7.55,39.68],
          [-7.31,39.47],
          [-7.25,39.19],
          [-6.98,39.05],
          [-7.04,38.86],
          [-7.28,38.72],
          [-7.36,38.44],
          [-7.12,38.19],
          [-6.95,38.21],
          [-7.03,38.03],
          [-7.27,37.98],
          [-7.52,37.56],
          [-7.41,37.19]
        ]
      }
    },
    {
      "type":"Feature",
      "properties":{
        "nombre":"España–Francia",
        "tipo":"frontera_internacional",
        "codigo":"ES-FR",
        "grupo":"referencia_meteorologica",
        "precision":"simplificada"
      },
      "geometry":{
        "type":"MultiLineString",
        "coordinates":[
          [
            [-1.79,43.38],
            [-1.70,43.32],
            [-1.42,43.07],
            [-1.26,43.13],
            [-1.24,43.06],
            [-0.91,42.97],
            [-0.73,42.99],
            [-0.53,42.80],
            [-0.28,42.86],
            [0.00,42.71],
            [0.71,42.71]
          ],
          [
            [1.49,42.60],
            [1.76,42.51],
            [2.06,42.37],
            [2.29,42.44],
            [2.70,42.34],
            [2.71,42.42],
            [2.97,42.49],
            [3.17,42.43]
          ]
        ]
      }
    }
  ]
}