{
  "type":"FeatureCollection",
  "name":"localidades-radar",
  "features":[
    {"type":"Feature","properties":{"nombre":"Sevilla","tipo":"capital","prioridad":1,"zoom_min":5,"corredor":"referencia"},"geometry":{"type":"Point","coordinates":[-5.9845,37.3891]}},
    {"type":"Feature","properties":{"nombre":"Huelva","tipo":"capital","prioridad":1,"zoom_min":5,"corredor":"referencia"},"geometry":{"type":"Point","coordinates":[-6.9447,37.2614]}},
    {"type":"Feature","properties":{"nombre":"Cádiz","tipo":"capital","prioridad":1,"zoom_min":5,"corredor":"costa"},"geometry":{"type":"Point","coordinates":[-6.2886,36.5271]}},
    {"type":"Feature","properties":{"nombre":"Córdoba","tipo":"capital","prioridad":1,"zoom_min":5,"corredor":"referencia"},"geometry":{"type":"Point","coordinates":[-4.7794,37.8882]}},
    {"type":"Feature","properties":{"nombre":"Málaga","tipo":"capital","prioridad":1,"zoom_min":5,"corredor":"costa"},"geometry":{"type":"Point","coordinates":[-4.415,36.72]}},
    {"type":"Feature","properties":{"nombre":"Granada","tipo":"capital","prioridad":1,"zoom_min":5,"corredor":"referencia"},"geometry":{"type":"Point","coordinates":[-3.5986,37.1773]}},
    {"type":"Feature","properties":{"nombre":"Jaén","tipo":"capital","prioridad":1,"zoom_min":5,"corredor":"referencia"},"geometry":{"type":"Point","coordinates":[-3.7903,37.7796]}},

    {"type":"Feature","properties":{"nombre":"Archidona","tipo":"cabecera","prioridad":1,"zoom_min":6,"corredor":"local"},"geometry":{"type":"Point","coordinates":[-4.387,37.095]}},

    {"type":"Feature","properties":{"nombre":"Antequera","tipo":"ciudad","prioridad":1,"zoom_min":7,"corredor":"comun"},"geometry":{"type":"Point","coordinates":[-4.563,37.019]}},
    {"type":"Feature","properties":{"nombre":"Jerez de la Frontera","tipo":"ciudad","prioridad":1,"zoom_min":7,"corredor":"cadiz_archidona"},"geometry":{"type":"Point","coordinates":[-6.1261,36.685]}},
    {"type":"Feature","properties":{"nombre":"Algeciras","tipo":"ciudad","prioridad":1,"zoom_min":7,"corredor":"costa"},"geometry":{"type":"Point","coordinates":[-5.4562,36.1408]}},

    {"type":"Feature","properties":{"nombre":"Ronda","tipo":"ciudad","prioridad":2,"zoom_min":8,"corredor":"referencia"},"geometry":{"type":"Point","coordinates":[-5.1671,36.7423]}},

    {"type":"Feature","properties":{"nombre":"Tarifa","tipo":"ciudad","prioridad":2,"zoom_min":9,"corredor":"costa"},"geometry":{"type":"Point","coordinates":[-5.6044,36.0133]}},
    {"type":"Feature","properties":{"nombre":"Estepona","tipo":"ciudad","prioridad":2,"zoom_min":9,"corredor":"costa"},"geometry":{"type":"Point","coordinates":[-5.1459,36.4276]}},
    {"type":"Feature","properties":{"nombre":"Marbella","tipo":"ciudad","prioridad":2,"zoom_min":9,"corredor":"costa"},"geometry":{"type":"Point","coordinates":[-4.885,36.51]}},
    {"type":"Feature","properties":{"nombre":"Fuengirola","tipo":"ciudad","prioridad":2,"zoom_min":9,"corredor":"costa"},"geometry":{"type":"Point","coordinates":[-4.6244,36.539]}},
    {"type":"Feature","properties":{"nombre":"Benalmádena","tipo":"ciudad","prioridad":2,"zoom_min":9,"corredor":"costa"},"geometry":{"type":"Point","coordinates":[-4.5168,36.5988]}},
    {"type":"Feature","properties":{"nombre":"Torremolinos","tipo":"ciudad","prioridad":2,"zoom_min":9,"corredor":"costa"},"geometry":{"type":"Point","coordinates":[-4.4991,36.6218]}},
    {"type":"Feature","properties":{"nombre":"Rincón de la Victoria","tipo":"ciudad","prioridad":2,"zoom_min":9,"corredor":"costa"},"geometry":{"type":"Point","coordinates":[-4.276,36.716]}},
    {"type":"Feature","properties":{"nombre":"Vélez-Málaga","tipo":"ciudad","prioridad":2,"zoom_min":9,"corredor":"costa"},"geometry":{"type":"Point","coordinates":[-4.1,36.778]}},
    {"type":"Feature","properties":{"nombre":"Nerja","tipo":"ciudad","prioridad":2,"zoom_min":9,"corredor":"costa"},"geometry":{"type":"Point","coordinates":[-3.877,36.745]}},
    {"type":"Feature","properties":{"nombre":"Loja","tipo":"ciudad","prioridad":2,"zoom_min":9,"corredor":"referencia"},"geometry":{"type":"Point","coordinates":[-4.151,37.167]}},

    {"type":"Feature","properties":{"nombre":"Osuna","tipo":"municipio","prioridad":1,"zoom_min":9,"corredor":"a92"},"geometry":{"type":"Point","coordinates":[-5.103,37.237]}},
    {"type":"Feature","properties":{"nombre":"Estepa","tipo":"municipio","prioridad":1,"zoom_min":9,"corredor":"a92"},"geometry":{"type":"Point","coordinates":[-4.879,37.292]}},
    {"type":"Feature","properties":{"nombre":"Alcalá de Guadaíra","tipo":"ciudad","prioridad":2,"zoom_min":9,"corredor":"a92"},"geometry":{"type":"Point","coordinates":[-5.8395,37.3383]}},
    {"type":"Feature","properties":{"nombre":"Arahal","tipo":"municipio","prioridad":2,"zoom_min":9,"corredor":"a92"},"geometry":{"type":"Point","coordinates":[-5.5453,37.2627]}},
    {"type":"Feature","properties":{"nombre":"Marchena","tipo":"municipio","prioridad":2,"zoom_min":9,"corredor":"a92"},"geometry":{"type":"Point","coordinates":[-5.416,37.329]}},
    {"type":"Feature","properties":{"nombre":"La Puebla de Cazalla","tipo":"municipio","prioridad":2,"zoom_min":9,"corredor":"a92"},"geometry":{"type":"Point","coordinates":[-5.311,37.222]}},
    {"type":"Feature","properties":{"nombre":"La Roda de Andalucía","tipo":"municipio","prioridad":2,"zoom_min":9,"corredor":"a92"},"geometry":{"type":"Point","coordinates":[-4.779,37.201]}},
    {"type":"Feature","properties":{"nombre":"Fuente de Piedra","tipo":"municipio","prioridad":2,"zoom_min":9,"corredor":"a92"},"geometry":{"type":"Point","coordinates":[-4.73,37.135]}},
    {"type":"Feature","properties":{"nombre":"Mollina","tipo":"municipio","prioridad":2,"zoom_min":9,"corredor":"a92"},"geometry":{"type":"Point","coordinates":[-4.657,37.125]}},
    {"type":"Feature","properties":{"nombre":"Humilladero","tipo":"municipio","prioridad":3,"zoom_min":9,"corredor":"a92"},"geometry":{"type":"Point","coordinates":[-4.702,37.113]}},
    {"type":"Feature","properties":{"nombre":"Alameda","tipo":"municipio","prioridad":2,"zoom_min":9,"corredor":"a92"},"geometry":{"type":"Point","coordinates":[-4.658,37.208]}},
    {"type":"Feature","properties":{"nombre":"Villanueva de Algaidas","tipo":"municipio","prioridad":2,"zoom_min":9,"corredor":"a92"},"geometry":{"type":"Point","coordinates":[-4.451,37.186]}},

    {"type":"Feature","properties":{"nombre":"Arcos de la Frontera","tipo":"municipio","prioridad":2,"zoom_min":9,"corredor":"cadiz_archidona"},"geometry":{"type":"Point","coordinates":[-5.806,36.748]}},
    {"type":"Feature","properties":{"nombre":"Bornos","tipo":"municipio","prioridad":2,"zoom_min":9,"corredor":"cadiz_archidona"},"geometry":{"type":"Point","coordinates":[-5.744,36.817]}},
    {"type":"Feature","properties":{"nombre":"Villamartín","tipo":"municipio","prioridad":2,"zoom_min":9,"corredor":"cadiz_archidona"},"geometry":{"type":"Point","coordinates":[-5.641,36.861]}},
    {"type":"Feature","properties":{"nombre":"Algodonales","tipo":"municipio","prioridad":2,"zoom_min":9,"corredor":"cadiz_archidona"},"geometry":{"type":"Point","coordinates":[-5.405,36.88]}},
    {"type":"Feature","properties":{"nombre":"Olvera","tipo":"municipio","prioridad":2,"zoom_min":9,"corredor":"cadiz_archidona"},"geometry":{"type":"Point","coordinates":[-5.267,36.935]}},
    {"type":"Feature","properties":{"nombre":"Almargen","tipo":"municipio","prioridad":2,"zoom_min":9,"corredor":"cadiz_archidona"},"geometry":{"type":"Point","coordinates":[-5.021,37.003]}},
    {"type":"Feature","properties":{"nombre":"Campillos","tipo":"municipio","prioridad":2,"zoom_min":9,"corredor":"cadiz_archidona"},"geometry":{"type":"Point","coordinates":[-4.862,37.046]}},
    {"type":"Feature","properties":{"nombre":"Teba","tipo":"municipio","prioridad":2,"zoom_min":9,"corredor":"cadiz_archidona"},"geometry":{"type":"Point","coordinates":[-4.92,36.983]}},
    {"type":"Feature","properties":{"nombre":"Villanueva del Trabuco","tipo":"municipio","prioridad":2,"zoom_min":9,"corredor":"local"},"geometry":{"type":"Point","coordinates":[-4.338,37.028]}},
    {"type":"Feature","properties":{"nombre":"Villanueva del Rosario","tipo":"municipio","prioridad":2,"zoom_min":9,"corredor":"local"},"geometry":{"type":"Point","coordinates":[-4.365,36.996]}},

    {"type":"Feature","properties":{"nombre":"Huertas del Río","tipo":"pedania","prioridad":1,"zoom_min":10,"corredor":"local"},"geometry":{"type":"Point","coordinates":[-4.43982,37.07854]}},
    {"type":"Feature","properties":{"nombre":"Estación de Archidona-La Romera","tipo":"pedania","prioridad":1,"zoom_min":10,"corredor":"local"},"geometry":{"type":"Point","coordinates":[-4.42399,37.13452]}},
    {"type":"Feature","properties":{"nombre":"Estación de Salinas","tipo":"pedania","prioridad":2,"zoom_min":10,"corredor":"local"},"geometry":{"type":"Point","coordinates":[-4.29931,37.12424]}},
    {"type":"Feature","properties":{"nombre":"Los Llanos","tipo":"estacion","prioridad":1,"zoom_min":10,"corredor":"local"},"geometry":{"type":"Point","coordinates":[-4.361634,37.05918]}}
  ]
}